ONEWEB-0058             
1 45161U 20008AG  25268.25016451  .00000351  00000+0  96913-3 0  9993
2 45161  87.8744  89.1144 0001428  87.2375 272.8916 13.10376097273724
ONEWEB-0059             
1 45162U 20008AH  25268.01762493  .00000071  00000+0  16694-3 0  9999
2 45162  87.8745  89.1613 0001514  89.2312 270.8989 13.10375493273598
ONEWEB-0062             
1 45163U 20008AJ  25268.19607727  .00000618  00000+0  17329-2 0  9999
2 45163  87.8737  89.1030 0001669 101.2845 258.8470 13.10370980273485
ONEWEB-0065             
1 45164U 20008AK  25267.94708377  .00000461  00000+0  12854-2 0  9999
2 45164  87.8742  89.1784 0001950  80.9428 279.1920 13.10375309273140
ONEWEB-0066             
1 45424U 20020A   25268.01541147 -.00000287  00000+0 -84641-3 0  9993
2 45424  87.8793  73.8812 0001499  82.9108 277.2190 13.11413440267929
ONEWEB-0067             
1 45425U 20020B   25267.44249388  .00000312  00000+0  84581-3 0  9992
2 45425  87.8787  73.8999 0001620  83.9269 276.2043 13.11420271267908
ONEWEB-0080             
1 45426U 20020C   25267.98575040  .00000477  00000+0  13114-2 0  9994
2 45426  87.8796  73.8885 0001314  97.0851 263.0426 13.11416644267948
ONEWEB-0090             
1 45427U 20020D   25268.15783888  .00000381  00000+0  10380-2 0  9992
2 45427  87.8795  73.8547 0001623  92.9824 267.1490 13.11414542267930
ONEWEB-0061             
1 45428U 20020E   25267.96103148 -.00000433  00000+0 -12563-2 0  9991
2 45428  87.8789  73.8744 0001590  91.8247 268.3063 13.11416983267865
ONEWEB-0081             
1 45429U 20020F   25268.01879995 -.00000323  00000+0 -94793-3 0  9993
2 45429  87.8787  73.8815 0001518  83.5168 276.6132 13.11413800267980
ONEWEB-0069             
1 45430U 20020G   25268.00778606  .00000108  00000+0  26863-3 0  9993
2 45430  87.8792  73.8793 0001652  87.2756 272.8561 13.11413067267918
ONEWEB-0031             
1 45431U 20020H   25268.20869518 -.00000831  00000+0 -23810-2 0  9992
2 45431  87.8794  73.8671 0001576  98.1862 261.9445 13.11424598267922
ONEWEB-0027             
1 45432U 20020J   25268.13675565  .00000070  00000+0  14648-3 0  9995
2 45432  87.9070  58.5527 0001920 104.8795 255.2550 13.17651396271454
ONEWEB-0064             
1 45433U 20020K   25268.20700659  .00000269  00000+0  72296-3 0  9990
2 45433  87.8789  73.8582 0001671  96.9535 263.1783 13.11418753267956
ONEWEB-0018             
1 45434U 20020L   25268.01033227  .00000047  00000+0  96531-4 0  9993
2 45434  87.8791  73.8823 0001590  90.8496 269.2814 13.11413672267875
ONEWEB-0083             
1 45435U 20020M   25268.15361510  .00000484  00000+0  13296-2 0  9998
2 45435  87.8793  73.8430 0001580  93.3726 266.7582 13.11417719267932
ONEWEB-0095             
1 45436U 20020N   25267.99183351  .00000517  00000+0  14214-2 0  9993
2 45436  87.8783  73.8933 0002390  92.1488 267.9913 13.11415970267918
