[{"OBJECT_NAME":"ONEWEB-0058","OBJECT_ID":"2020-008AG","EPOCH":"2025-09-25T06:00:14.213664","MEAN_MOTION":13.10376097,"ECCENTRICITY":0.00014286,"INCLINATION":87.8744,"RA_OF_ASC_NODE":89.1144,"ARG_OF_PERICENTER":87.2375,"MEAN_ANOMALY":272.8916,"EPHEMERIS_TYPE":0,"CLASSIFICATION_TYPE":"U","NORAD_CAT_ID":45161,"ELEMENT_SET_NO":999,"REV_AT_EPOCH":27372,"BSTAR":0.0009691277,"MEAN_MOTION_DOT":3.51e-6,"MEAN_MOTION_DDOT":0},{"OBJECT_NAME":"ONEWEB-0059","OBJECT_ID":"2020-008AH","EPOCH":"2025-09-25T00:25:22.793952","MEAN_MOTION":13.10375493,"ECCENTRICITY":0.00015146,"INCLINATION":87.8745,"RA_OF_ASC_NODE":89.1613,"ARG_OF_PERICENTER":89.2312,"MEAN_ANOMALY":270.8989,"EPHEMERIS_TYPE":0,"CLASSIFICATION_TYPE":"U","NORAD_CAT_ID":45162,"ELEMENT_SET_NO":999,"REV_AT_EPOCH":27359,"BSTAR":0.00016693637,"MEAN_MOTION_DOT":7.1e-7,"MEAN_MOTION_DDOT":0},{"OBJECT_NAME":"ONEWEB-0062","OBJECT_ID":"2020-008AJ","EPOCH":"2025-09-25T04:42:21.076128","MEAN_MOTION":13.1037098,"ECCENTRICITY":0.0001669,"INCLINATION":87.8737,"RA_OF_ASC_NODE":89.103,"ARG_OF_PERICENTER":101.2845,"MEAN_ANOMALY":258.847,"EPHEMERIS_TYPE":0,"CLASSIFICATION_TYPE":"U","NORAD_CAT_ID":45163,"ELEMENT_SET_NO":999,"REV_AT_EPOCH":27348,"BSTAR":0.0017329074,"MEAN_MOTION_DOT":6.18e-6,"MEAN_MOTION_DDOT":0},{"OBJECT_NAME":"ONEWEB-0065","OBJECT_ID":"2020-008AK","EPOCH":"2025-09-24T22:43:48.037728","MEAN_MOTION":13.10375309,"ECCENTRICITY":0.00019501,"INCLINATION":87.8742,"RA_OF_ASC_NODE":89.1784,"ARG_OF_PERICENTER":80.9428,"MEAN_ANOMALY":279.192,"EPHEMERIS_TYPE":0,"CLASSIFICATION_TYPE":"U","NORAD_CAT_ID":45164,"ELEMENT_SET_NO":999,"REV_AT_EPOCH":27314,"BSTAR":0.001285431,"MEAN_MOTION_DOT":4.61e-6,"MEAN_MOTION_DDOT":0},{"OBJECT_NAME":"ONEWEB-0066","OBJECT_ID":"2020-020A","EPOCH":"2025-09-25T00:22:11.551008","MEAN_MOTION":13.1141344,"ECCENTRICITY":0.00014997,"INCLINATION":87.8793,"RA_OF_ASC_NODE":73.8812,"ARG_OF_PERICENTER":82.9108,"MEAN_ANOMALY":277.219,"EPHEMERIS_TYPE":0,"CLASSIFICATION_TYPE":"U","NORAD_CAT_ID":45424,"ELEMENT_SET_NO":999,"REV_AT_EPOCH":26792,"BSTAR":-0.00084640878,"MEAN_MOTION_DOT":-2.87e-6,"MEAN_MOTION_DDOT":0},{"OBJECT_NAME":"ONEWEB-0067","OBJECT_ID":"2020-020B","EPOCH":"2025-09-24T10:37:11.471232","MEAN_MOTION":13.11420271,"ECCENTRICITY":0.00016207,"INCLINATION":87.8787,"RA_OF_ASC_NODE":73.8999,"ARG_OF_PERICENTER":83.9269,"MEAN_ANOMALY":276.2043,"EPHEMERIS_TYPE":0,"CLASSIFICATION_TYPE":"U","NORAD_CAT_ID":45425,"ELEMENT_SET_NO":999,"REV_AT_EPOCH":26790,"BSTAR":0.00084580944,"MEAN_MOTION_DOT":3.12e-6,"MEAN_MOTION_DDOT":0},{"OBJECT_NAME":"ONEWEB-0080","OBJECT_ID":"2020-020C","EPOCH":"2025-09-24T23:39:28.834560","MEAN_MOTION":13.11416644,"ECCENTRICITY":0.00013149,"INCLINATION":87.8796,"RA_OF_ASC_NODE":73.8885,"ARG_OF_PERICENTER":97.0851,"MEAN_ANOMALY":263.0426,"EPHEMERIS_TYPE":0,"CLASSIFICATION_TYPE":"U","NORAD_CAT_ID":45426,"ELEMENT_SET_NO":999,"REV_AT_EPOCH":26794,"BSTAR":0.0013113726,"MEAN_MOTION_DOT":4.77e-6,"MEAN_MOTION_DDOT":0},{"OBJECT_NAME":"ONEWEB-0090","OBJECT_ID":"2020-020D","EPOCH":"2025-09-25T03:47:17.279232","MEAN_MOTION":13.11414542,"ECCENTRICITY":0.00016239,"INCLINATION":87.8795,"RA_OF_ASC_NODE":73.8547,"ARG_OF_PERICENTER":92.9824,"MEAN_ANOMALY":267.149,"EPHEMERIS_TYPE":0,"CLASSIFICATION_TYPE":"U","NORAD_CAT_ID":45427,"ELEMENT_SET_NO":999,"REV_AT_EPOCH":26793,"BSTAR":0.0010379988,"MEAN_MOTION_DOT":3.81e-6,"MEAN_MOTION_DDOT":0},{"OBJECT_NAME":"ONEWEB-0061","OBJECT_ID":"2020-020E","EPOCH":"2025-09-24T23:03:53.119872","MEAN_MOTION":13.11416983,"ECCENTRICITY":0.00015901,"INCLINATION":87.8789,"RA_OF_ASC_NODE":73.8744,"ARG_OF_PERICENTER":91.8247,"MEAN_ANOMALY":268.3063,"EPHEMERIS_TYPE":0,"CLASSIFICATION_TYPE":"U","NORAD_CAT_ID":45428,"ELEMENT_SET_NO":999,"REV_AT_EPOCH":26786,"BSTAR":-0.0012563463,"MEAN_MOTION_DOT":-4.33e-6,"MEAN_MOTION_DDOT":0},{"OBJECT_NAME":"ONEWEB-0081","OBJECT_ID":"2020-020F","EPOCH":"2025-09-25T00:27:04.315680","MEAN_MOTION":13.114138,"ECCENTRICITY":0.00015185,"INCLINATION":87.8787,"RA_OF_ASC_NODE":73.8815,"ARG_OF_PERICENTER":83.5168,"MEAN_ANOMALY":276.6132,"EPHEMERIS_TYPE":0,"CLASSIFICATION_TYPE":"U","NORAD_CAT_ID":45429,"ELEMENT_SET_NO":999,"REV_AT_EPOCH":26798,"BSTAR":-0.0009479306,"MEAN_MOTION_DOT":-3.23e-6,"MEAN_MOTION_DDOT":0},{"OBJECT_NAME":"ONEWEB-0069","OBJECT_ID":"2020-020G","EPOCH":"2025-09-25T00:11:12.715584","MEAN_MOTION":13.11413067,"ECCENTRICITY":0.00016522,"INCLINATION":87.8792,"RA_OF_ASC_NODE":73.8793,"ARG_OF_PERICENTER":87.2756,"MEAN_ANOMALY":272.8561,"EPHEMERIS_TYPE":0,"CLASSIFICATION_TYPE":"U","NORAD_CAT_ID":45430,"ELEMENT_SET_NO":999,"REV_AT_EPOCH":26791,"BSTAR":0.00026862763,"MEAN_MOTION_DOT":1.08e-6,"MEAN_MOTION_DDOT":0},{"OBJECT_NAME":"ONEWEB-0031","OBJECT_ID":"2020-020H","EPOCH":"2025-09-25T05:00:31.263552","MEAN_MOTION":13.11424598,"ECCENTRICITY":0.00015765,"INCLINATION":87.8794,"RA_OF_ASC_NODE":73.8671,"ARG_OF_PERICENTER":98.1862,"MEAN_ANOMALY":261.9445,"EPHEMERIS_TYPE":0,"CLASSIFICATION_TYPE":"U","NORAD_CAT_ID":45431,"ELEMENT_SET_NO":999,"REV_AT_EPOCH":26792,"BSTAR":-0.0023810414,"MEAN_MOTION_DOT":-8.31e-6,"MEAN_MOTION_DDOT":0},{"OBJECT_NAME":"ONEWEB-0027","OBJECT_ID":"2020-020J","EPOCH":"2025-09-25T03:16:55.688160","MEAN_MOTION":13.17651396,"ECCENTRICITY":0.00019201,"INCLINATION":87.907,"RA_OF_ASC_NODE":58.5527,"ARG_OF_PERICENTER":104.8795,"MEAN_ANOMALY":255.255,"EPHEMERIS_TYPE":0,"CLASSIFICATION_TYPE":"U","NORAD_CAT_ID":45432,"ELEMENT_SET_NO":999,"REV_AT_EPOCH":27145,"BSTAR":0.00014648129,"MEAN_MOTION_DOT":7.0e-7,"MEAN_MOTION_DDOT":0},{"OBJECT_NAME":"ONEWEB-0064","OBJECT_ID":"2020-020K","EPOCH":"2025-09-25T04:58:05.369376","MEAN_MOTION":13.11418753,"ECCENTRICITY":0.0001671,"INCLINATION":87.8789,"RA_OF_ASC_NODE":73.8582,"ARG_OF_PERICENTER":96.9535,"MEAN_ANOMALY":263.1783,"EPHEMERIS_TYPE":0,"CLASSIFICATION_TYPE":"U","NORAD_CAT_ID":45433,"ELEMENT_SET_NO":999,"REV_AT_EPOCH":26795,"BSTAR":0.0007229649,"MEAN_MOTION_DOT":2.69e-6,"MEAN_MOTION_DDOT":0},{"OBJECT_NAME":"ONEWEB-0018","OBJECT_ID":"2020-020L","EPOCH":"2025-09-25T00:14:52.708128","MEAN_MOTION":13.11413672,"ECCENTRICITY":0.00015906,"INCLINATION":87.8791,"RA_OF_ASC_NODE":73.8823,"ARG_OF_PERICENTER":90.8496,"MEAN_ANOMALY":269.2814,"EPHEMERIS_TYPE":0,"CLASSIFICATION_TYPE":"U","NORAD_CAT_ID":45434,"ELEMENT_SET_NO":999,"REV_AT_EPOCH":26787,"BSTAR":9.6531485e-5,"MEAN_MOTION_DOT":4.7e-7,"MEAN_MOTION_DDOT":0},{"OBJECT_NAME":"ONEWEB-0083","OBJECT_ID":"2020-020M","EPOCH":"2025-09-25T03:41:12.344640","MEAN_MOTION":13.11417719,"ECCENTRICITY":0.00015802,"INCLINATION":87.8793,"RA_OF_ASC_NODE":73.843,"ARG_OF_PERICENTER":93.3726,"MEAN_ANOMALY":266.7582,"EPHEMERIS_TYPE":0,"CLASSIFICATION_TYPE":"U","NORAD_CAT_ID":45435,"ELEMENT_SET_NO":999,"REV_AT_EPOCH":26793,"BSTAR":0.0013296298,"MEAN_MOTION_DOT":4.84e-6,"MEAN_MOTION_DDOT":0},{"OBJECT_NAME":"ONEWEB-0095","OBJECT_ID":"2020-020N","EPOCH":"2025-09-24T23:48:14.415264","MEAN_MOTION":13.1141597,"ECCENTRICITY":0.000239,"INCLINATION":87.8783,"RA_OF_ASC_NODE":73.8933,"ARG_OF_PERICENTER":92.1488,"MEAN_ANOMALY":267.9913,"EPHEMERIS_TYPE":0,"CLASSIFICATION_TYPE":"U","NORAD_CAT_ID":45436,"ELEMENT_SET_NO":999,"REV_AT_EPOCH":26791,"BSTAR":0.0014214256,"MEAN_MOTION_DOT":5.17e-6,"MEAN_MOTION_DDOT":0}]
